IRIDIUM 921             
1 24873U 97034E   24357.10173308  .00162929  00000+0  12280-2 0  9994
2 24873  86.3682 193.2933 0001404  56.1582 303.9823 15.72021683504591
IRIDIUM 26              
1 24903U 97043A   24356.83280098  .00000820  00000+0  27084-3 0  9992
2 24903  86.3978 185.0464 0001881  83.9086 276.2325 14.36859265431274
IRIDIUM 22              
1 24907U 97043E   24356.61780485  .00000648  00000+0  21780-3 0  9992
2 24907  86.3981 188.5193 0001977  89.9166 270.2258 14.35703263431296
DUMMY MASS 1            
1 24925U 97048A   24356.67673194  .00000705  00000+0  76195-4 0  9996
2 24925  86.3357 217.3264 0008831  64.3277 295.8858 14.86686590478759
DUMMY MASS 2            
1 24926U 97048B   24357.14797258  .00000728  00000+0  79159-4 0  9996
2 24926  86.3355 218.6833 0009759  71.1747 289.0535 14.86442013478849
IRIDIUM 29              
1 24944U 97051A   24356.70101979  .00000718  00000+0  23980-3 0  9999
2 24944  86.3969 218.2647 0002168  89.1858 270.9587 14.36170590427795
IRIDIUM 33              
1 24946U 97051C   24356.70228528  .00000453  00000+0  15328-3 0  9994
2 24946  86.3885 217.5125 0006242 307.1189  52.9436 14.34691864427290
IRIDIUM 28              
1 24948U 97051E   24357.13783847  .00000631  00000+0  20606-3 0  9997
2 24948  86.3975 215.6991 0001673  76.4778 283.6606 14.37116582428481
